{"fetched_at":"2026-04-05T12:57:33Z","count":17389,"tles":[{"name":"BEIDOU-3 IGSO-2 (C39)","line1":"1 44337U 19035A   26086.82285878 -.00000161  00000+0  00000+0 0  9996","line2":"2 44337  55.2326 159.5780 0039045 213.6954 226.2541  1.00291912 24858","category":"GPS"}]}